GLOBALSTAR M075         
1 37192U 10054E   25300.88617730 -.00000108  00000+0 -23365-4 0  9995
2 37192  51.9921 137.4977 0000929  88.1979  18.5619 12.62269289692601
GLOBALSTAR M073         
1 37193U 10054F   25300.81473411 -.00000103  00000+0  46089-5 0  9998
2 37193  52.0074  51.6344 0000586 128.1821  12.5919 12.62263612694588
GLOBALSTAR M083         
1 37739U 11033A   25300.67669674 -.00000087  00000+0  94204-4 0  9996
2 37739  51.9883   0.6041 0000424 133.8913  41.0564 12.62263963663582
GLOBALSTAR M088         
1 37740U 11033B   25300.85236359 -.00000078  00000+0  14143-3 0  9991
2 37740  52.0212 265.9347 0000620  61.9125 310.3180 12.62269288659151
GLOBALSTAR M091         
1 37741U 11033C   25300.87192700 -.00000072  00000+0  17647-3 0  9991
2 37741  51.9993 229.1830 0000777  78.3290 323.2513 12.62261063659946
GLOBALSTAR M085         
1 37742U 11033D   25300.86736264 -.00000086  00000+0  10173-3 0  9992
2 37742  52.0112 180.2873 0000968  90.7757 350.1194 12.62266315660451
GLOBALSTAR M081         
1 37743U 11033E   25300.89349138 -.00000081  00000+0  12547-3 0  9998
2 37743  51.9944 182.9081 0000762  85.0074 354.5199 12.62269786660609
GLOBALSTAR M089         
1 37744U 11033F   25300.85877811 -.00000106  00000+0 -11049-4 0  9995
2 37744  51.9905 137.2155 0000822  73.7316  28.8126 12.62272139661442
